start=new Date('2022-01-01T00:00:00.000Z').valueOf();
sats=[{"OBJECT_NAME":"STARLINK-3274","APOAPSIS":"320.416","COUNTRY_CODE":"US","OBJECT_ID":"2021-125AG","ELEMENT_SET_NO":"999","TLE_LINE2":"2 50186  53.2175 301.2081 0004892 268.5910 335.9389 15.84710997  2546","MEAN_ELEMENT_THEORY":"SGP4","LAUNCH_DATE":"2021-12-18","DECAY_DATE":null,"MEAN_MOTION_DOT":"-0.00813161","NORAD_CAT_ID":"50186","TIME_SYSTEM":"UTC","EPOCH":"2021-12-31T14:00:01.000224","MEAN_ANOMALY":"335.9389","REV_AT_EPOCH":"254","SEMIMAJOR_AXIS":"6695.276","GP_ID":"192822360","TLE_LINE1":"1 50186U 21125AG  21365.58334491 -.00813161  00000-0 -37594-2 0  9997","BSTAR":"-0.00375940000000","PERIOD":"90.868","OBJECT_TYPE":"PAYLOAD","ARG_OF_PERICENTER":"268.5910","REF_FRAME":"TEME","SITE":"AFWTR","INCLINATION":"53.2175","PERIAPSIS":"313.865","RA_OF_ASC_NODE":"301.2081","CENTER_NAME":"EARTH","CLASSIFICATION_TYPE":"U","MEAN_MOTION_DDOT":"0.0000000000000","ECCENTRICITY":"0.00048920","RCS_SIZE":"LARGE","FILE":"3255242","MEAN_MOTION":"15.84710997","EPHEMERIS_TYPE":"0"},{"SITE":"AFWTR","INCLINATION":"53.2175","OBJECT_TYPE":"PAYLOAD","ARG_OF_PERICENTER":"268.5168","REF_FRAME":"TEME","CENTER_NAME":"EARTH","RA_OF_ASC_NODE":"301.2045","PERIAPSIS":"314.121","FILE":"3255242","MEAN_MOTION":"15.84755179","CLASSIFICATION_TYPE":"U","RCS_SIZE":"LARGE","ECCENTRICITY":"0.00043250","MEAN_MOTION_DDOT":"0.0000000000000","EPHEMERIS_TYPE":"0","OBJECT_ID":"2021-125AH","COUNTRY_CODE":"US","ELEMENT_SET_NO":"999","OBJECT_NAME":"STARLINK-3272","APOAPSIS":"319.912","NORAD_CAT_ID":"50187","MEAN_ELEMENT_THEORY":"SGP4","TLE_LINE2":"2 50187  53.2175 301.2045 0004325 268.5168 337.7772 15.84755179  2540","LAUNCH_DATE":"2021-12-18","DECAY_DATE":null,"MEAN_MOTION_DOT":"-0.00812857","EPOCH":"2021-12-31T14:00:01.000224","TIME_SYSTEM":"UTC","TLE_LINE1":"1 50187U 21125AH  21365.58334491 -.00812857  00000-0 -37513-2 0  9990","BSTAR":"-0.00375130000000","GP_ID":"192821122","SEMIMAJOR_AXIS":"6695.151","PERIOD":"90.866","REV_AT_EPOCH":"254","MEAN_ANOMALY":"337.7772"},{"TIME_SYSTEM":"UTC","EPOCH":"2021-12-31T14:00:01.000224","MEAN_ANOMALY":"337.0278","REV_AT_EPOCH":"254","SEMIMAJOR_AXIS":"6695.189","TLE_LINE1":"1 50188U 21125AJ  21365.58334491 -.00812927  00000-0 -37526-2 0  9993","GP_ID":"192821372","BSTAR":"-0.00375260000000","PERIOD":"90.867","APOAPSIS":"320.327","OBJECT_NAME":"STARLINK-3275","COUNTRY_CODE":"US","OBJECT_ID":"2021-125AJ","ELEMENT_SET_NO":"999","MEAN_ELEMENT_THEORY":"SGP4","TLE_LINE2":"2 50188  53.2175 301.2058 0004889 268.6423 337.0278 15.84741914  2541","DECAY_DATE":null,"LAUNCH_DATE":"2021-12-18","MEAN_MOTION_DOT":"-0.00812927","NORAD_CAT_ID":"50188","CLASSIFICATION_TYPE":"U","ECCENTRICITY":"0.00048890","MEAN_MOTION_DDOT":"0.0000000000000","RCS_SIZE":"LARGE","FILE":"3255242","MEAN_MOTION":"15.84741914","EPHEMERIS_TYPE":"0","OBJECT_TYPE":"PAYLOAD","ARG_OF_PERICENTER":"268.6423","REF_FRAME":"TEME","SITE":"AFWTR","INCLINATION":"53.2175","RA_OF_ASC_NODE":"301.2058","PERIAPSIS":"313.780","CENTER_NAME":"EARTH"},{"EPOCH":"2021-12-31T14:00:01.000224","TIME_SYSTEM":"UTC","SEMIMAJOR_AXIS":"6695.361","TLE_LINE1":"1 50189U 21125AK  21365.58334491 -.00813396  00000-0 -37670-2 0  9995","GP_ID":"192821623","BSTAR":"-0.00376700000000","PERIOD":"90.870","MEAN_ANOMALY":"334.7863","REV_AT_EPOCH":"254","COUNTRY_CODE":"US","OBJECT_ID":"2021-125AK","ELEMENT_SET_NO":"999","APOAPSIS":"320.272","OBJECT_NAME":"STARLINK-3276","NORAD_CAT_ID":"50189","MEAN_ELEMENT_THEORY":"SGP4","TLE_LINE2":"2 50189  53.2175 301.2106 0004550 268.5883 334.7863 15.84680732  2544","MEAN_MOTION_DOT":"-0.00813396","DECAY_DATE":null,"LAUNCH_DATE":"2021-12-18","FILE":"3255242","MEAN_MOTION":"15.84680732","CLASSIFICATION_TYPE":"U","MEAN_MOTION_DDOT":"0.0000000000000","ECCENTRICITY":"0.00045500","RCS_SIZE":"LARGE","EPHEMERIS_TYPE":"0","SITE":"AFWTR","INCLINATION":"53.2175","OBJECT_TYPE":"PAYLOAD","REF_FRAME":"TEME","ARG_OF_PERICENTER":"268.5883","CENTER_NAME":"EARTH","RA_OF_ASC_NODE":"301.2106","PERIAPSIS":"314.179"},{"OBJECT_NAME":"STARLINK-3268","APOAPSIS":"319.887","OBJECT_ID":"2021-125AL","COUNTRY_CODE":"US","ELEMENT_SET_NO":"999","MEAN_ELEMENT_THEORY":"SGP4","TLE_LINE2":"2 50190  53.2175 301.2008 0004475 268.8915 339.1439 15.84799749  2549","LAUNCH_DATE":"2021-12-18","DECAY_DATE":null,"MEAN_MOTION_DOT":"-0.00812235","NORAD_CAT_ID":"50190","TIME_SYSTEM":"UTC","EPOCH":"2021-12-31T14:00:01.000224","REV_AT_EPOCH":"254","MEAN_ANOMALY":"339.1439","TLE_LINE1":"1 50190U 21125AL  21365.58334491 -.00812235  00000-0 -37397-2 0  9994","BSTAR":"-0.00373970000000","GP_ID":"192821860","SEMIMAJOR_AXIS":"6695.026","PERIOD":"90.863","OBJECT_TYPE":"PAYLOAD","ARG_OF_PERICENTER":"268.8915","REF_FRAME":"TEME","SITE":"AFWTR","INCLINATION":"53.2175","PERIAPSIS":"313.895","RA_OF_ASC_NODE":"301.2008","CENTER_NAME":"EARTH","CLASSIFICATION_TYPE":"U","RCS_SIZE":"LARGE","ECCENTRICITY":"0.00044750","MEAN_MOTION_DDOT":"0.0000000000000","FILE":"3255242","MEAN_MOTION":"15.84799749","EPHEMERIS_TYPE":"0"},{"CENTER_NAME":"EARTH","PERIAPSIS":"313.817","RA_OF_ASC_NODE":"301.2070","INCLINATION":"53.2175","SITE":"AFWTR","ARG_OF_PERICENTER":"268.8229","REF_FRAME":"TEME","OBJECT_TYPE":"PAYLOAD","EPHEMERIS_TYPE":"0","MEAN_MOTION":"15.84725451","FILE":"3255242","MEAN_MOTION_DDOT":"0.0000000000000","ECCENTRICITY":"0.00049030","RCS_SIZE":"LARGE","CLASSIFICATION_TYPE":"U","NORAD_CAT_ID":"50191","LAUNCH_DATE":"2021-12-18","DECAY_DATE":null,"MEAN_MOTION_DOT":"-0.00812876","MEAN_ELEMENT_THEORY":"SGP4","TLE_LINE2":"2 50191  53.2175 301.2070 0004903 268.8229 336.2980 15.84725451  2541","ELEMENT_SET_NO":"999","COUNTRY_CODE":"US","OBJECT_ID":"2021-125AM","APOAPSIS":"320.383","OBJECT_NAME":"STARLINK-3273","PERIOD":"90.867","SEMIMAJOR_AXIS":"6695.235","GP_ID":"192820622","TLE_LINE1":"1 50191U 21125AM  21365.58334491 -.00812876  00000-0 -37553-2 0  9990","BSTAR":"-0.00375530000000","MEAN_ANOMALY":"336.2980","REV_AT_EPOCH":"254","EPOCH":"2021-12-31T14:00:01.000224","TIME_SYSTEM":"UTC"},{"EPHEMERIS_TYPE":"0","ECCENTRICITY":"0.00049750","MEAN_MOTION_DDOT":"0.0000000000000","RCS_SIZE":"LARGE","CLASSIFICATION_TYPE":"U","MEAN_MOTION":"15.84814471","FILE":"3255242","PERIAPSIS":"313.518","RA_OF_ASC_NODE":"301.1996","CENTER_NAME":"EARTH","ARG_OF_PERICENTER":"268.8196","REF_FRAME":"TEME","OBJECT_TYPE":"PAYLOAD","INCLINATION":"53.2175","SITE":"AFWTR","MEAN_ANOMALY":"339.8005","REV_AT_EPOCH":"254","PERIOD":"90.862","SEMIMAJOR_AXIS":"6694.984","TLE_LINE1":"1 50192U 21125AN  21365.58334491 -.00812211  00000-0 -37356-2 0  9995","BSTAR":"-0.00373560000000","GP_ID":"192820872","TIME_SYSTEM":"UTC","EPOCH":"2021-12-31T14:00:01.000224","DECAY_DATE":null,"MEAN_MOTION_DOT":"-0.00812211","LAUNCH_DATE":"2021-12-18","MEAN_ELEMENT_THEORY":"SGP4","TLE_LINE2":"2 50192  53.2175 301.1996 0004975 268.8196 339.8005 15.84814471  2548","NORAD_CAT_ID":"50192","OBJECT_NAME":"STARLINK-3259","APOAPSIS":"320.180","ELEMENT_SET_NO":"999","COUNTRY_CODE":"US","OBJECT_ID":"2021-125AN"},{"PERIAPSIS":"313.306","RA_OF_ASC_NODE":"301.2033","CENTER_NAME":"EARTH","ARG_OF_PERICENTER":"268.7399","REF_FRAME":"TEME","OBJECT_TYPE":"PAYLOAD","INCLINATION":"53.2175","SITE":"AFWTR","EPHEMERIS_TYPE":"0","ECCENTRICITY":"0.00054790","MEAN_MOTION_DDOT":"0.0000000000000","RCS_SIZE":"LARGE","CLASSIFICATION_TYPE":"U","MEAN_MOTION":"15.84769897","FILE":"3255242","MEAN_MOTION_DOT":"-0.00812592","DECAY_DATE":null,"LAUNCH_DATE":"2021-12-18","TLE_LINE2":"2 50193  53.2175 301.2033 0005479 268.7399 338.1335 15.84769897  2545","MEAN_ELEMENT_THEORY":"SGP4","NORAD_CAT_ID":"50193","OBJECT_NAME":"STARLINK-3261","APOAPSIS":"320.643","ELEMENT_SET_NO":"999","COUNTRY_CODE":"US","OBJECT_ID":"2021-125AP","MEAN_ANOMALY":"338.1335","REV_AT_EPOCH":"254","PERIOD":"90.865","SEMIMAJOR_AXIS":"6695.110","TLE_LINE1":"1 50193U 21125AP  21365.58334491 -.00812592  00000-0 -37442-2 0  9994","GP_ID":"192822123","BSTAR":"-0.00374420000000","TIME_SYSTEM":"UTC","EPOCH":"2021-12-31T14:00:01.000224"},{"FILE":"3255242","MEAN_MOTION":"15.84830739","CLASSIFICATION_TYPE":"U","MEAN_MOTION_DDOT":"0.0000000000000","ECCENTRICITY":"0.00049660","RCS_SIZE":"LARGE","EPHEMERIS_TYPE":"0","SITE":"AFWTR","INCLINATION":"53.2175","OBJECT_TYPE":"PAYLOAD","ARG_OF_PERICENTER":"268.5214","REF_FRAME":"TEME","CENTER_NAME":"EARTH","PERIAPSIS":"313.479","RA_OF_ASC_NODE":"301.1985","EPOCH":"2021-12-31T14:00:01.000224","TIME_SYSTEM":"UTC","SEMIMAJOR_AXIS":"6694.938","TLE_LINE1":"1 50194U 21125AQ  21365.58334491 -.00812314  00000-0 -37332-2 0  9995","BSTAR":"-0.00373320000000","GP_ID":"192822361","PERIOD":"90.861","MEAN_ANOMALY":"340.6511","REV_AT_EPOCH":"254","COUNTRY_CODE":"US","OBJECT_ID":"2021-125AQ","ELEMENT_SET_NO":"999","APOAPSIS":"320.128","OBJECT_NAME":"STARLINK-3269","NORAD_CAT_ID":"50194","TLE_LINE2":"2 50194  53.2175 301.1985 0004966 268.5214 340.6511 15.84830739  2543","MEAN_ELEMENT_THEORY":"SGP4","DECAY_DATE":null,"MEAN_MOTION_DOT":"-0.00812314","LAUNCH_DATE":"2021-12-18"},{"CENTER_NAME":"EARTH","PERIAPSIS":"313.622","RA_OF_ASC_NODE":"301.2021","SITE":"AFWTR","INCLINATION":"53.2175","OBJECT_TYPE":"PAYLOAD","REF_FRAME":"TEME","ARG_OF_PERICENTER":"268.7892","EPHEMERIS_TYPE":"0","FILE":"3255242","MEAN_MOTION":"15.84784335","CLASSIFICATION_TYPE":"U","ECCENTRICITY":"0.00049470","MEAN_MOTION_DDOT":"0.0000000000000","RCS_SIZE":"LARGE","NORAD_CAT_ID":"50195","TLE_LINE2":"2 50195  53.2175 301.2021 0004947 268.7892 338.6776 15.84784335  2549","MEAN_ELEMENT_THEORY":"SGP4","DECAY_DATE":null,"LAUNCH_DATE":"2021-12-18","MEAN_MOTION_DOT":"-0.00812422","COUNTRY_CODE":"US","OBJECT_ID":"2021-125AR","ELEMENT_SET_NO":"999","OBJECT_NAME":"STARLINK-3266","APOAPSIS":"320.246","SEMIMAJOR_AXIS":"6695.069","BSTAR":"-0.00374220000000","TLE_LINE1":"1 50195U 21125AR  21365.58334491 -.00812422  00000-0 -37422-2 0  9996","GP_ID":"192821123","PERIOD":"90.864","MEAN_ANOMALY":"338.6776","REV_AT_EPOCH":"254","EPOCH":"2021-12-31T14:00:01.000224","TIME_SYSTEM":"UTC"}];
